[Satellite]
VERSION=1.1
NAME=FLOCK 2K-11
NICKNAME=FLOCK 2K-11
TLE1=1 42894U 17042BX  18020.45748100  .00008405  00000-0  24617-3 0  9991
TLE2=2 42894  96.9936 284.5953 0010871 272.2564  87.7436 15.35396631 28964
